{
    "links": {
        "self": "http://www.neowsapp.com/rest/v1/neo/3843406?api_key=iIulBulltgU6a56xZRHN4H3l9WmuAYTsLGpBGhQ2"
    },
    "id": "3843406",
    "neo_reference_id": "3843406",
    "name": "(2019 OK3)",
    "designation": "2019 OK3",
    "nasa_jpl_url": "http://ssd.jpl.nasa.gov/sbdb.cgi?sstr=3843406",
    "absolute_magnitude_h": 22.6,
    "estimated_diameter": {
        "kilometers": {
            "estimated_diameter_min": 0.0802703167,
            "estimated_diameter_max": 0.1794898848
        },
        "meters": {
            "estimated_diameter_min": 80.2703167283,
            "estimated_diameter_max": 179.4898847799
        },
        "miles": {
            "estimated_diameter_min": 0.049877647,
            "estimated_diameter_max": 0.1115298092
        },
        "feet": {
            "estimated_diameter_min": 263.3540659348,
            "estimated_diameter_max": 588.8775935812
        }
    },
    "is_potentially_hazardous_asteroid": false,
    "close_approach_data": [
        {
            "close_approach_date": "2019-07-31",
            "close_approach_date_full": "2019-Jul-31 04:27",
            "epoch_date_close_approach": 1564547220000,
            "relative_velocity": {
                "kilometers_per_second": "11.0859093385",
                "kilometers_per_hour": "39909.2736186875",
                "miles_per_hour": "24798.070599345"
            },
            "miss_distance": {
                "astronomical": "0.1516313769",
                "lunar": "58.9846056141",
                "kilometers": "22683731.009407203",
                "miles": "14095016.8546292814"
            },
            "orbiting_body": "Earth"
        },
        {
            "close_approach_date": "2120-06-14",
            "close_approach_date_full": "2120-Jun-14 21:22",
            "epoch_date_close_approach": 4747843320000,
            "relative_velocity": {
                "kilometers_per_second": "19.4590884766",
                "kilometers_per_hour": "70052.7185158097",
                "miles_per_hour": "43528.0350133374"
            },
            "miss_distance": {
                "astronomical": "0.1094282751",
                "lunar": "42.5675990139",
                "kilometers": "16370236.872734037",
                "miles": "10171993.5111102306"
            },
            "orbiting_body": "Venus"
        }
    ],
    "orbital_data": {
        "orbit_id": "2",
        "orbit_determination_date": "2019-08-04 05:59:35",
        "first_observation_date": "2019-07-26",
        "last_observation_date": "2019-08-04",
        "data_arc_in_days": 9,
        "observations_used": 15,
        "orbit_uncertainty": "8",
        "minimum_orbit_intersection": ".038327",
        "jupiter_tisserand_invariant": "5.260",
        "epoch_osculation": "2458691.5",
        "eccentricity": ".4463307181644837",
        "semi_major_axis": "1.174208052092967",
        "inclination": "12.90701090013936",
        "ascending_node_longitude": "293.8365567840854",
        "orbital_period": "464.746372011494",
        "perihelion_distance": ".6501229289277936",
        "perihelion_argument": "110.2273202023361",
        "aphelion_distance": "1.698293175258141",
        "perihelion_time": "2458763.126607699688",
        "mean_anomaly": "304.5168799053047",
        "mean_motion": ".7746160522821608",
        "equinox": "J2000",
        "orbit_class": {
            "orbit_class_type": "APO",
            "orbit_class_description": "Near-Earth asteroid orbits which cross the Earth’s orbit similar to that of 1862 Apollo",
            "orbit_class_range": "a (semi-major axis) > 1.0 AU; q (perihelion) < 1.017 AU"
        }
    },
    "is_sentry_object": false
}